{"fetched_at":"2026-03-29T16:36:15Z","count":15609,"tles":[{"name":"STARLINK-34163","line1":"1 64008U 25101Q   26087.85014128  .00025084  00000+0  91723-3 0  9992","line2":"2 64008  42.9983 249.9268 0000778 273.1566  86.9196 15.27606015 49989","category":"Starlink"}]}